CCSDS_OMM_VERS = 2.0
CREATION_DATE  = 
ORIGINATOR     = 

OBJECT_NAME    = SEASAT 1
OBJECT_ID      = 1978-064A
CENTER_NAME    = EARTH
REF_FRAME      = TEME
TIME_SYSTEM    = UTC
MEAN_ELEMENT_THEORY = SGP/SGP4

EPOCH          = 2026-01-05T14:48:52.184160
MEAN_MOTION    = 14.46093816
ECCENTRICITY   = .00012009
INCLINATION    = 108.0145
RA_OF_ASC_NODE = 353.1332
ARG_OF_PERICENTER = 265.8762
MEAN_ANOMALY   = 94.2246

EPHEMERIS_TYPE = 0
CLASSIFICATION_TYPE = U
NORAD_CAT_ID   = 10967
ELEMENT_SET_NO = 999
REV_AT_EPOCH   = 49739
BSTAR          = .21193195E-3
MEAN_MOTION_DOT = .62E-5
MEAN_MOTION_DDOT = 0

CCSDS_OMM_VERS = 2.0
CREATION_DATE  = 
ORIGINATOR     = 

OBJECT_NAME    = SL-14 R/B
OBJECT_ID      = 1979-011B
CENTER_NAME    = EARTH
REF_FRAME      = TEME
TIME_SYSTEM    = UTC
MEAN_ELEMENT_THEORY = SGP/SGP4

EPOCH          = 2026-01-05T16:00:17.513568
MEAN_MOTION    = 14.91809563
ECCENTRICITY   = .00146401
INCLINATION    = 82.5250
RA_OF_ASC_NODE = 156.3515
ARG_OF_PERICENTER = 268.1110
MEAN_ANOMALY   = 91.8433

EPHEMERIS_TYPE = 0
CLASSIFICATION_TYPE = U
NORAD_CAT_ID   = 11267
ELEMENT_SET_NO = 999
REV_AT_EPOCH   = 51938
BSTAR          = .10315505E-3
MEAN_MOTION_DOT = .1067E-4
MEAN_MOTION_DDOT = 0

CCSDS_OMM_VERS = 2.0
CREATION_DATE  = 
ORIGINATOR     = 

OBJECT_NAME    = SL-8 R/B
OBJECT_ID      = 1979-089B
CENTER_NAME    = EARTH
REF_FRAME      = TEME
TIME_SYSTEM    = UTC
MEAN_ELEMENT_THEORY = SGP/SGP4

EPOCH          = 2026-01-05T15:03:37.403136
MEAN_MOTION    = 14.42300149
ECCENTRICITY   = .00150942
INCLINATION    = 74.0673
RA_OF_ASC_NODE = 207.7672
ARG_OF_PERICENTER = 32.6999
MEAN_ANOMALY   = 327.5089

EPHEMERIS_TYPE = 0
CLASSIFICATION_TYPE = U
NORAD_CAT_ID   = 11574
ELEMENT_SET_NO = 999
REV_AT_EPOCH   = 42701
BSTAR          = .10752364E-3
MEAN_MOTION_DOT = .329E-5
MEAN_MOTION_DDOT = 0

CCSDS_OMM_VERS = 2.0
CREATION_DATE  = 
ORIGINATOR     = 

OBJECT_NAME    = SL-14 R/B
OBJECT_ID      = 1980-005B
CENTER_NAME    = EARTH
REF_FRAME      = TEME
TIME_SYSTEM    = UTC
MEAN_ELEMENT_THEORY = SGP/SGP4

EPOCH          = 2026-01-05T12:06:12.788352
MEAN_MOTION    = 14.90828043
ECCENTRICITY   = .00162835
INCLINATION    = 82.5139
RA_OF_ASC_NODE = 7.1575
ARG_OF_PERICENTER = 19.8558
MEAN_ANOMALY   = 340.3291

EPHEMERIS_TYPE = 0
CLASSIFICATION_TYPE = U
NORAD_CAT_ID   = 11672
ELEMENT_SET_NO = 999
REV_AT_EPOCH   = 46707
BSTAR          = .95774155E-4
MEAN_MOTION_DOT = .97E-5
MEAN_MOTION_DDOT = 0

CCSDS_OMM_VERS = 2.0
CREATION_DATE  = 
ORIGINATOR     = 

OBJECT_NAME    = SL-8 R/B
OBJECT_ID      = 1981-003B
CENTER_NAME    = EARTH
REF_FRAME      = TEME
TIME_SYSTEM    = UTC
MEAN_ELEMENT_THEORY = SGP/SGP4

EPOCH          = 2026-01-05T10:26:38.456448
MEAN_MOTION    = 15.08020325
ECCENTRICITY   = .02747541
INCLINATION    = 82.9374
RA_OF_ASC_NODE = 348.3973
ARG_OF_PERICENTER = 39.0096
MEAN_ANOMALY   = 323.0598

EPHEMERIS_TYPE = 0
CLASSIFICATION_TYPE = U
NORAD_CAT_ID   = 12139
ELEMENT_SET_NO = 999
REV_AT_EPOCH   = 30513
BSTAR          = .8113496E-3
MEAN_MOTION_DOT = .30751E-3
MEAN_MOTION_DDOT = 0

CCSDS_OMM_VERS = 2.0
CREATION_DATE  = 
ORIGINATOR     = 

OBJECT_NAME    = SL-3 R/B
OBJECT_ID      = 1981-046B
CENTER_NAME    = EARTH
REF_FRAME      = TEME
TIME_SYSTEM    = UTC
MEAN_ELEMENT_THEORY = SGP/SGP4

EPOCH          = 2026-01-05T14:34:41.751552
MEAN_MOTION    = 15.40215055
ECCENTRICITY   = .00180384
INCLINATION    = 81.2320
RA_OF_ASC_NODE = 5.3706
ARG_OF_PERICENTER = 235.5888
MEAN_ANOMALY   = 124.3649

EPHEMERIS_TYPE = 0
CLASSIFICATION_TYPE = U
NORAD_CAT_ID   = 12465
ELEMENT_SET_NO = 999
REV_AT_EPOCH   = 42871
BSTAR          = .38908044E-3
MEAN_MOTION_DOT = .1576E-3
MEAN_MOTION_DDOT = 0

CCSDS_OMM_VERS = 2.0
CREATION_DATE  = 
ORIGINATOR     = 

OBJECT_NAME    = SL-3 R/B
OBJECT_ID      = 1981-103B
CENTER_NAME    = EARTH
REF_FRAME      = TEME
TIME_SYSTEM    = UTC
MEAN_ELEMENT_THEORY = SGP/SGP4

EPOCH          = 2026-01-05T14:47:10.855968
MEAN_MOTION    = 15.20579363
ECCENTRICITY   = .00137738
INCLINATION    = 81.1602
RA_OF_ASC_NODE = 287.3869
ARG_OF_PERICENTER = 132.1893
MEAN_ANOMALY   = 228.0510

EPHEMERIS_TYPE = 0
CLASSIFICATION_TYPE = U
NORAD_CAT_ID   = 12904
ELEMENT_SET_NO = 999
REV_AT_EPOCH   = 96364
BSTAR          = .35069162E-3
MEAN_MOTION_DOT = .7725E-4
MEAN_MOTION_DDOT = 0

CCSDS_OMM_VERS = 2.0
CREATION_DATE  = 
ORIGINATOR     = 

OBJECT_NAME    = SL-3 R/B
OBJECT_ID      = 1982-013B
CENTER_NAME    = EARTH
REF_FRAME      = TEME
TIME_SYSTEM    = UTC
MEAN_ELEMENT_THEORY = SGP/SGP4

EPOCH          = 2026-01-05T15:39:30.164544
MEAN_MOTION    = 15.21334230
ECCENTRICITY   = .00235758
INCLINATION    = 81.1726
RA_OF_ASC_NODE = 234.6160
ARG_OF_PERICENTER = 34.2971
MEAN_ANOMALY   = 325.9777

EPHEMERIS_TYPE = 0
CLASSIFICATION_TYPE = U
NORAD_CAT_ID   = 13068
ELEMENT_SET_NO = 999
REV_AT_EPOCH   = 39476
BSTAR          = .25778368E-3
MEAN_MOTION_DOT = .584E-4
MEAN_MOTION_DDOT = 0

CCSDS_OMM_VERS = 2.0
CREATION_DATE  = 
ORIGINATOR     = 

OBJECT_NAME    = SL-3 R/B
OBJECT_ID      = 1982-039B
CENTER_NAME    = EARTH
REF_FRAME      = TEME
TIME_SYSTEM    = UTC
MEAN_ELEMENT_THEORY = SGP/SGP4

EPOCH          = 2026-01-05T13:37:16.866048
MEAN_MOTION    = 15.09698726
ECCENTRICITY   = .00296478
INCLINATION    = 81.1699
RA_OF_ASC_NODE = 288.6805
ARG_OF_PERICENTER = 171.5243
MEAN_ANOMALY   = 188.6490

EPHEMERIS_TYPE = 0
CLASSIFICATION_TYPE = U
NORAD_CAT_ID   = 13154
ELEMENT_SET_NO = 999
REV_AT_EPOCH   = 37211
BSTAR          = .24715979E-3
MEAN_MOTION_DOT = .4046E-4
MEAN_MOTION_DDOT = 0

CCSDS_OMM_VERS = 2.0
CREATION_DATE  = 
ORIGINATOR     = 

OBJECT_NAME    = SL-3 R/B
OBJECT_ID      = 1982-079B
CENTER_NAME    = EARTH
REF_FRAME      = TEME
TIME_SYSTEM    = UTC
MEAN_ELEMENT_THEORY = SGP/SGP4

EPOCH          = 2026-01-05T14:01:14.933568
MEAN_MOTION    = 15.23935039
ECCENTRICITY   = .00260643
INCLINATION    = 81.1471
RA_OF_ASC_NODE = 267.5504
ARG_OF_PERICENTER = 22.1104
MEAN_ANOMALY   = 338.1246

EPHEMERIS_TYPE = 0
CLASSIFICATION_TYPE = U
NORAD_CAT_ID   = 13403
ELEMENT_SET_NO = 999
REV_AT_EPOCH   = 36808
BSTAR          = .33694795E-3
MEAN_MOTION_DOT = .8249E-4
MEAN_MOTION_DDOT = 0

CCSDS_OMM_VERS = 2.0
CREATION_DATE  = 
ORIGINATOR     = 

OBJECT_NAME    = SL-14 R/B
OBJECT_ID      = 1982-092B
CENTER_NAME    = EARTH
REF_FRAME      = TEME
TIME_SYSTEM    = UTC
MEAN_ELEMENT_THEORY = SGP/SGP4

EPOCH          = 2026-01-05T13:47:18.471840
MEAN_MOTION    = 14.86584369
ECCENTRICITY   = .00211124
INCLINATION    = 82.5668
RA_OF_ASC_NODE = 200.4199
ARG_OF_PERICENTER = 147.1559
MEAN_ANOMALY   = 266.8369

EPHEMERIS_TYPE = 0
CLASSIFICATION_TYPE = U
NORAD_CAT_ID   = 13553
ELEMENT_SET_NO = 999
REV_AT_EPOCH   = 31955
BSTAR          = .80862421E-4
MEAN_MOTION_DOT = .744E-5
MEAN_MOTION_DDOT = 0

CCSDS_OMM_VERS = 2.0
CREATION_DATE  = 
ORIGINATOR     = 

OBJECT_NAME    = SL-3 R/B
OBJECT_ID      = 1983-010B
CENTER_NAME    = EARTH
REF_FRAME      = TEME
TIME_SYSTEM    = UTC
MEAN_ELEMENT_THEORY = SGP/SGP4

EPOCH          = 2026-01-05T14:58:42.540672
MEAN_MOTION    = 15.44239805
ECCENTRICITY   = .00161964
INCLINATION    = 81.1038
RA_OF_ASC_NODE = 79.4504
ARG_OF_PERICENTER = 265.3403
MEAN_ANOMALY   = 94.5991

EPHEMERIS_TYPE = 0
CLASSIFICATION_TYPE = U
NORAD_CAT_ID   = 13819
ELEMENT_SET_NO = 999
REV_AT_EPOCH   = 34820
BSTAR          = .40055096E-3
MEAN_MOTION_DOT = .18538E-3
MEAN_MOTION_DDOT = 0

CCSDS_OMM_VERS = 2.0
CREATION_DATE  = 
ORIGINATOR     = 

OBJECT_NAME    = SL-3 R/B
OBJECT_ID      = 1983-075B
CENTER_NAME    = EARTH
REF_FRAME      = TEME
TIME_SYSTEM    = UTC
MEAN_ELEMENT_THEORY = SGP/SGP4

EPOCH          = 2026-01-05T13:25:45.209856
MEAN_MOTION    = 15.36726595
ECCENTRICITY   = .00245489
INCLINATION    = 97.6108
RA_OF_ASC_NODE = 7.8517
ARG_OF_PERICENTER = 95.0471
MEAN_ANOMALY   = 265.3576

EPHEMERIS_TYPE = 0
CLASSIFICATION_TYPE = U
NORAD_CAT_ID   = 14208
ELEMENT_SET_NO = 999
REV_AT_EPOCH   = 32045
BSTAR          = .41186808E-3
MEAN_MOTION_DOT = .1485E-3
MEAN_MOTION_DDOT = 0

CCSDS_OMM_VERS = 2.0
CREATION_DATE  = 
ORIGINATOR     = 

OBJECT_NAME    = COSMOS 1536
OBJECT_ID      = 1984-013A
CENTER_NAME    = EARTH
REF_FRAME      = TEME
TIME_SYSTEM    = UTC
MEAN_ELEMENT_THEORY = SGP/SGP4

EPOCH          = 2026-01-05T14:17:38.065344
MEAN_MOTION    = 15.22888154
ECCENTRICITY   = .00153288
INCLINATION    = 82.5455
RA_OF_ASC_NODE = 170.5006
ARG_OF_PERICENTER = 140.8786
MEAN_ANOMALY   = 219.3562

EPHEMERIS_TYPE = 0
CLASSIFICATION_TYPE = U
NORAD_CAT_ID   = 14699
ELEMENT_SET_NO = 999
REV_AT_EPOCH   = 26301
BSTAR          = .46044673E-3
MEAN_MOTION_DOT = .10859E-3
MEAN_MOTION_DDOT = 0

CCSDS_OMM_VERS = 2.0
CREATION_DATE  = 
ORIGINATOR     = 

OBJECT_NAME    = SL-14 R/B
OBJECT_ID      = 1984-027B
CENTER_NAME    = EARTH
REF_FRAME      = TEME
TIME_SYSTEM    = UTC
MEAN_ELEMENT_THEORY = SGP/SGP4

EPOCH          = 2026-01-05T07:51:02.215872
MEAN_MOTION    = 14.85905517
ECCENTRICITY   = .0017888
INCLINATION    = 82.5430
RA_OF_ASC_NODE = 304.4376
ARG_OF_PERICENTER = 178.3515
MEAN_ANOMALY   = 181.7763

EPHEMERIS_TYPE = 0
CLASSIFICATION_TYPE = U
NORAD_CAT_ID   = 14820
ELEMENT_SET_NO = 999
REV_AT_EPOCH   = 23822
BSTAR          = .84036707E-4
MEAN_MOTION_DOT = .759E-5
MEAN_MOTION_DDOT = 0

